OBJECT_NAME,OBJECT_ID,EPOCH,MEAN_MOTION,ECCENTRICITY,INCLINATION,RA_OF_ASC_NODE,ARG_OF_PERICENTER,MEAN_ANOMALY,EPHEMERIS_TYPE,CLASSIFICATION_TYPE,NORAD_CAT_ID,ELEMENT_SET_NO,REV_AT_EPOCH,BSTAR,MEAN_MOTION_DOT,MEAN_MOTION_DDOT
STARLINK-35017,2025-184V,2026-06-13T17:11:37.868928,15.05668777,.0001568,97.3619,216.4959,101.7684,258.3720,0,U,65292,999,4570,.57828E-4,.778E-5,0
STARLINK-34951,2025-184W,2026-06-13T16:19:47.322912,15.05657350,.0001217,97.3621,216.3925,103.3465,256.7898,0,U,65293,999,4574,.33998E-3,.4852E-4,0
STARLINK-34613,2025-184X,2026-06-13T16:35:43.630080,15.05656097,.0002613,97.3629,216.3757,111.7201,248.4305,0,U,65294,999,4574,-.77191E-4,-.1171E-4,0
STARLINK-34834,2025-184Y,2026-06-13T17:03:39.022848,15.05649499,.0001682,97.3616,216.3520,120.3974,239.7420,0,U,65295,999,4574,.21919E-3,.3106E-4,0
STARLINK-34872,2025-184Z,2026-06-13T16:47:41.483616,15.05654523,.0000832,97.3639,216.3666,159.8098,200.3163,0,U,65296,999,4574,.14616E-3,.2052E-4,0
STARLINK-34899,2025-189A,2026-06-13T04:09:02.652768,15.31716548,.00011774,53.1573,122.6536,88.1854,271.9282,0,U,65323,999,4573,.61973465E-3,.18925E-3,0
STARLINK-34196,2025-189B,2026-06-13T03:56:03.623712,15.31754320,.00012494,53.1579,122.6160,89.9428,270.1716,0,U,65324,999,4568,.74715132E-3,.2293E-3,0
STARLINK-34911,2025-189C,2026-06-13T13:44:46.488192,15.30203312,.0001512,53.1565,121.6142,107.0479,253.0687,0,U,65325,999,4578,.67838E-3,.19788E-3,0
STARLINK-34902,2025-189D,2026-06-13T04:03:43.775424,15.30193558,.00015246,53.1578,123.3582,89.1722,270.9453,0,U,65326,999,4572,.77646175E-3,.22703E-3,0
STARLINK-34880,2025-189E,2026-06-13T04:06:45.519552,15.30234472,.00012733,53.1578,123.3738,94.0187,266.0959,0,U,65327,999,4572,.59400916E-3,.17293E-3,0
STARLINK-34885,2025-189F,2026-06-13T13:46:15.447360,15.31718590,.0001455,53.1573,120.9084,93.6518,266.4650,0,U,65328,999,4573,.89393E-3,.27493E-3,0
STARLINK-34908,2025-189G,2026-06-13T14:46:54.935040,15.30212020,.000122,53.1591,121.1658,88.2129,271.9012,0,U,65329,999,4579,.93602E-3,.27476E-3,0
STARLINK-34864,2025-189H,2026-06-13T04:56:34.708992,15.31706770,.00015064,53.1609,122.8763,91.1767,268.9407,0,U,65330,999,4573,.34344382E-3,.10309E-3,0
STARLINK-34918,2025-189J,2026-06-13T04:02:19.616640,15.31715521,.00013144,53.1580,122.6380,86.5073,273.6079,0,U,65331,999,4567,.64051483E-3,.19573E-3,0
STARLINK-33890,2025-189K,2026-06-13T04:09:31.505184,15.31714784,.0001287,53.1573,122.6655,83.8615,276.2533,0,U,65332,999,4453,.58275002E-3,.1777E-3,0
STARLINK-34602,2025-189L,2026-06-13T13:46:44.007744,15.31714067,.0001435,53.1587,120.9062,101.0630,259.0532,0,U,65333,999,4579,.74832E-3,.22938E-3,0
STARLINK-34878,2025-189M,2026-06-13T05:02:49.574400,15.30393120,.0001327,53.1598,122.9014,103.5284,256.5865,0,U,65334,999,4573,.53372E-2,.162169E-2,0
STARLINK-34874,2025-189N,2026-06-13T04:29:34.293408,15.30200602,.00013559,53.1573,123.4612,91.8233,268.2923,0,U,65335,999,4572,.55604616E-3,.16145E-3,0
STARLINK-34835,2025-189P,2026-06-13T13:58:28.922016,15.30175076,.0001511,53.1573,121.6686,107.3501,252.7665,0,U,65336,999,4578,.56242E-3,.16322E-3,0
STARLINK-34854,2025-189Q,2026-06-13T14:13:37.387776,15.31710658,.0001251,53.1591,121.0251,94.3891,265.7253,0,U,65337,999,4573,.57552E-3,.17542E-3,0
STARLINK-34751,2025-189R,2026-06-13T16:00:01.998720,15.31680771,.0001231,53.1570,120.5257,90.8661,34.2004,0,U,65338,999,589,.10679E-2,.32899E-3,0
STARLINK-34777,2025-189S,2026-06-13T14:00:09.599616,15.31752127,.0001382,53.1579,120.9655,87.9124,272.2036,0,U,65339,999,4580,.10111E-2,.31192E-3,0
STARLINK-35020,2025-189T,2026-06-13T14:39:53.221824,15.31711471,.0001444,53.1587,120.4245,95.0321,265.0845,0,U,65340,999,4575,.39081E-3,.11786E-3,0
STARLINK-35016,2025-189U,2026-06-13T03:59:09.751776,15.30230985,.00011821,53.1578,123.3308,85.4497,274.6639,0,U,65341,999,4567,.56600738E-3,.16458E-3,0
STARLINK-35092,2025-189V,2026-06-13T14:46:36.943104,15.31698854,.0001412,53.1586,120.4582,91.3549,268.7614,0,U,65342,999,4571,.54688E-3,.16643E-3,0
STARLINK-34838,2025-189W,2026-06-13T13:59:58.127424,15.30213519,.0001563,53.1586,121.6642,82.3930,277.7248,0,U,65343,999,4579,.62084E-3,.18081E-3,0
STARLINK-35088,2025-189X,2026-06-13T13:49:20.014176,15.30207758,.0001388,53.1576,121.6278,97.7060,262.4099,0,U,65344,999,4579,.87948E-3,.25785E-3,0
STARLINK-34831,2025-189Y,2026-06-13T14:06:53.975808,15.31720798,.0001304,53.1579,120.9917,98.3183,261.7967,0,U,65345,999,4580,.69429E-3,.21255E-3,0
STARLINK-34873,2025-189Z,2026-06-13T14:05:51.656352,15.30225785,.0001927,53.1584,120.9862,80.0456,280.0763,0,U,65346,999,4580,.53612E-3,.15565E-3,0
STARLINK-34881,2025-189AA,2026-06-13T02:55:40.613376,15.31388024,.00019664,53.1566,123.0583,124.3018,235.8170,0,U,65347,999,4572,.10890082E-1,.350474E-2,0
